              TDR Cartesian                         TDR Cartesian  
    -----------------------------------       --------------------------------
     X    =       19945550.46                 X    =         6079403.78
     Y    =       -3908308.52  feet           Y    =        -1191252.44  meter
     Z    =       -9083613.58                 Z    =        -2768685.42
     XDOT =      10372.244866                 XDOT =        3161.460235
     YDOT =      13870.674633  feet/sec       YDOT =        4227.781628  meter/sec
     ZDOT =      16847.177901                 ZDOT =        5135.019824
  
  
    The mean element set is posted at the UTC for which position is
    just north of the next ascending node relative to the above
    vector time
 
 
    TWO LINE MEAN ELEMENT SET
  
    ISS
    1 25544U 98067A   16127.10005055  .00016717  00000-0  10270-3 0  9077
    2 25544  51.6415 267.9900 0001818  76.2190 283.9166 15.54433607 38431
  
  
    Satellite: ISS
    Catalog Number: 25544
    Epoch time:      16127.10005055   =   yrday.fracday
    Element set:     907
    Inclination:       51.6415  deg
    RA of node:       267.9900  deg
    Eccentricity:     .0001818     
    Arg of perigee:    76.2190  deg
    Mean anomaly:     283.9166  deg
    Mean motion:   15.54433607  rev/day
    Decay rate:    1.67170E-04  rev/day^2
    Epoch rev:            3843
    Checksum:              302
 
 
    Coasting Arc #9 (Orbit 3858)
    ---------------------------------------
 
    Vector Time (GMT): 2016/128/02:16:00.000
    Vector Time (MET): N/A
    Weight (LBS)     : 945238.6
 
              M50 Cartesian                         M50 Keplerian  
    -----------------------------------       --------------------------------
     X    =        1737141.86                 A    =         6787952.77  meter
     Y    =        6471685.73  meter          E    =           .0014966
     Z    =        1042398.38                 I    =           51.29489
     XDOT =      -4449.245471                 Wp   =          118.96775
     YDOT =       2148.470212  meter/sec      RA   =          262.13545  deg
     ZDOT =      -5867.203663                 TA   =           49.67208
                                              MA   =           49.54143
                                              Ha   =            221.141  n.mi
                                              Hp   =            213.509
 
              M50 Cartesian                         J2K Cartesian  
    -----------------------------------       --------------------------------
     X    =        5699284.31                 X    =         1659581.10
     Y    =       21232564.73  feet           Y    =         6490677.92  meter
     Z    =        3419942.18                 Z    =         1050648.87
     XDOT =     -14597.262043                 XDOT =       -4444.438531
     YDOT =       7048.786785  feet/sec       YDOT =        2098.742747  meter/sec
     ZDOT =     -19249.355850                 ZDOT =       -5888.805767
 
              TDR Cartesian                         TDR Cartesian  
    -----------------------------------       --------------------------------
     X    =      -21938209.76                 X    =        -6686766.34
     Y    =        1334303.56  feet           Y    =          406695.72  meter
     Z    =        3454596.59                 Z    =         1052961.04
     XDOT =      -3925.806639                 XDOT =       -1196.585864
     YDOT =     -13986.923267  feet/sec       YDOT =       -4263.214212  meter/sec
     ZDOT =     -19343.554382                 ZDOT =       -5895.915376
  
  
    The mean element set is posted at the UTC for which position is
    just north of the next ascending node relative to the above
    vector time
 
 
    TWO LINE MEAN ELEMENT SET
  
    ISS
    1 25544U 98067A   16128.12867404  .00016717  00000-0  10270-3 0  9085
    2 25544  51.6424 262.8603 0001789  80.9589 279.1766 15.54441261 38591
  
  
    Satellite: ISS
    Catalog Number: 25544
    Epoch time:      16128.12867404   =   yrday.fracday
    Element set:     908
    Inclination:       51.6424  deg
    RA of node:       262.8603  deg
    Eccentricity:     .0001789     
    Arg of perigee:    80.9589  deg
    Mean anomaly:     279.1766  deg
    Mean motion:   15.54441261  rev/day
    Decay rate:    1.67170E-04  rev/day^2
    Epoch rev:            3859
    Checksum:              340
 
 
    Coasting Arc #10 (Orbit 3874)
    ---------------------------------------
 
    Vector Time (GMT): 2016/129/02:16:00.000
    Vector Time (MET): N/A
    Weight (LBS)     : 945238.6
 
              M50 Cartesian                         M50 Keplerian  
    -----------------------------------       --------------------------------
     X    =        -904366.79                 A    =         6788149.68  meter
     Y    =       -6678306.48  meter          E    =           .0014854
     Z    =         754785.02                 I    =           51.30118
     XDOT =       4872.331815                 Wp   =           56.22358
     YDOT =         18.352381  meter/sec      RA   =          257.14029  deg
     ZDOT =       5924.275973                 TA   =          311.97557
                                              MA   =          312.10201
                                              Ha   =            221.103  n.mi
                                              Hp   =            213.521
 
              M50 Cartesian                         J2K Cartesian  
    -----------------------------------       --------------------------------
     X    =       -2967082.65                 X    =         -833287.58
     Y    =      -21910454.34  feet           Y    =        -6688022.31  meter
     Z    =        2476328.82                 Z    =          750564.14
     XDOT =      15985.340602                 XDOT =        4842.986316
     YDOT =         60.211225  feet/sec       YDOT =          72.673732  meter/sec
     ZDOT =      19436.600961                 ZDOT =        5947.873738
 
              TDR Cartesian                         TDR Cartesian  
    -----------------------------------       --------------------------------
     X    =       22086880.10                 X    =         6732081.05
     Y    =        1061054.70  feet           Y    =          323409.47  meter
     Z    =        2459203.81                 Z    =          749565.32
     XDOT =      -2874.719469                 XDOT =        -876.214494
     YDOT =      13972.264711  feet/sec       YDOT =        4258.746284  meter/sec
     ZDOT =      19539.080051                 ZDOT =        5955.511600
  
  
    The mean element set is posted at the UTC for which position is
    just north of the next ascending node relative to the above
    vector time
 
 
    TWO LINE MEAN ELEMENT SET
  
    ISS
    1 25544U 98067A   16129.15728903  .00016717  00000-0  10270-3 0  9090
    2 25544  51.6427 257.7305 0001738  80.6646 279.4703 15.54453629 38754
  
  
    Satellite: ISS
    Catalog Number: 25544
    Epoch time:      16129.15728903   =   yrday.fracday
    Element set:     909
    Inclination:       51.6427  deg
    RA of node:       257.7305  deg
    Eccentricity:     .0001738     
    Arg of perigee:    80.6646  deg
    Mean anomaly:     279.4703  deg
    Mean motion:   15.54453629  rev/day
    Decay rate:    1.67170E-04  rev/day^2
    Epoch rev:            3875
    Checksum:              338
 
 
    Coasting Arc #11 (Orbit 3889)
    ---------------------------------------
 
    Vector Time (GMT): 2016/130/02:16:00.000
    Vector Time (MET): N/A
    Weight (LBS)     : 945238.6
 
              M50 Cartesian                         M50 Keplerian  
    -----------------------------------       --------------------------------
     X    =         -80088.82                 A    =         6785652.60  meter
     Y    =        6304378.04  meter          E    =           .0006610
     Z    =       -2508410.75                 I    =           51.30222
     XDOT =      -5130.232313                 Wp   =          119.51441
     YDOT =      -2156.583891  meter/sec      RA   =          252.14265  deg
     ZDOT =      -5270.035892                 TA   =           88.75767
                                              MA   =           88.68194
                                              Ha   =            221.082  n.mi
                                              Hp   =            213.476
 
              M50 Cartesian                         J2K Cartesian  
    -----------------------------------       --------------------------------
     X    =        -262758.58                 X    =         -138395.02
     Y    =       20683654.99  feet           Y    =         6303156.56  meter
     Z    =       -8229694.07                 Z    =        -2508941.09
     XDOT =     -16831.470844                 XDOT =       -5080.135594
     YDOT =      -7075.406466  feet/sec       YDOT =       -2213.673169  meter/sec
     ZDOT =     -17290.144003                 ZDOT =       -5294.836109
 
              TDR Cartesian                         TDR Cartesian  
    -----------------------------------       --------------------------------
     X    =      -20363502.08                 X    =        -6206795.43
     Y    =       -3626824.94  feet           Y    =        -1105456.24  meter
     Z    =       -8233129.07                 Z    =        -2509457.74
     XDOT =       9479.764451                 XDOT =        2889.432205
     YDOT =     -13834.558053  feet/sec       YDOT =       -4216.773295  meter/sec
     ZDOT =     -17397.471177                 ZDOT =       -5302.749215
  
  
    The mean element set is posted at the UTC for which position is
    just north of the next ascending node relative to the above
    vector time
 
 
    TWO LINE MEAN ELEMENT SET
  
    ISS
    1 25544U 98067A   16130.12160514  .00016717  00000-0  10270-3 0  9109
    2 25544  51.6438 252.9215 0001737  83.8053 276.3298 15.54473355 38909
  
